[
    {
        "Altitude(m)": 563364.3086837656,
        "Argument of Periapsis(deg)": 0.013245982221427002,
        "Eccentricity": 0.0,
        "Inclination(deg)": 53.0,
        "Latitude(deg)": -32.241988000690306,
        "Longitude(deg)": -84.78694243761485,
        "Mean Anomaly(deg)": -41.634914264844774,
        "RAAN(deg)": 44.98028673705604,
        "Satellite Name": "Starlink Shell 1 216",
        "Satellite Number": 216,
        "Semi-Major Axis(m)": 6931778.249405717,
        "Time(s)": 380
    },
    {
        "Altitude(m)": 563189.0175925149,
        "Argument of Periapsis(deg)": 0.013594560700938237,
        "Eccentricity": 0.0,
        "Inclination(deg)": 53.0,
        "Latitude(deg)": -31.798926563032538,
        "Longitude(deg)": -84.30634228730756,
        "Mean Anomaly(deg)": -41.00808306128811,
        "RAAN(deg)": 44.97976796697856,
        "Satellite Name": "Starlink Shell 1 216",
        "Satellite Number": 216,
        "Semi-Major Axis(m)": 6931778.249405717,
        "Time(s)": 390
    },
    {
        "Altitude(m)": 563013.6260776501,
        "Argument of Periapsis(deg)": 0.013943139180449475,
        "Eccentricity": 0.0,
        "Inclination(deg)": 53.0,
        "Latitude(deg)": -31.35370241704501,
        "Longitude(deg)": -83.83069127116994,
        "Mean Anomaly(deg)": -40.3812518577314,
        "RAAN(deg)": 44.97924919690109,
        "Satellite Name": "Starlink Shell 1 216",
        "Satellite Number": 216,
        "Semi-Major Axis(m)": 6931778.249405717,
        "Time(s)": 400
    },
    {
        "Altitude(m)": 562838.2003230789,
        "Argument of Periapsis(deg)": 0.014291717659960712,
        "Eccentricity": 0.0,
        "Inclination(deg)": 53.0,
        "Latitude(deg)": -30.906371314730308,
        "Longitude(deg)": -83.35988041912107,
        "Mean Anomaly(deg)": -39.754420654174645,
        "RAAN(deg)": 44.97873042682362,
        "Satellite Name": "Starlink Shell 1 216",
        "Satellite Number": 216,
        "Semi-Major Axis(m)": 6931778.249405717,
        "Time(s)": 410
    },
    {
        "Altitude(m)": 562662.806382091,
        "Argument of Periapsis(deg)": 0.014640296139471948,
        "Eccentricity": 0.0,
        "Inclination(deg)": 53.0,
        "Latitude(deg)": -30.456987763100994,
        "Longitude(deg)": -82.89380247198217,
        "Mean Anomaly(deg)": -39.127589450617926,
        "RAAN(deg)": 44.97821165674614,
        "Satellite Name": "Starlink Shell 1 216",
        "Satellite Number": 216,
        "Semi-Major Axis(m)": 6931778.249405717,
        "Time(s)": 420
    },
    {
        "Altitude(m)": 562487.5101477514,
        "Argument of Periapsis(deg)": 0.014988874618983185,
        "Eccentricity": 0.0,
        "Inclination(deg)": 53.0,
        "Latitude(deg)": -30.00560505615389,
        "Longitude(deg)": -82.43235140305404,
        "Mean Anomaly(deg)": -38.50075824706128,
        "RAAN(deg)": 44.97769288666867,
        "Satellite Name": "Starlink Shell 1 216",
        "Satellite Number": 216,
        "Semi-Major Axis(m)": 6931778.249405717,
        "Time(s)": 430
    },
    {
        "Altitude(m)": 562312.3773233987,
        "Argument of Periapsis(deg)": 0.015337453098494424,
        "Eccentricity": 0.0,
        "Inclination(deg)": 53.0,
        "Latitude(deg)": -29.552275306589944,
        "Longitude(deg)": -81.97542193499092,
        "Mean Anomaly(deg)": -37.873927043504516,
        "RAAN(deg)": 44.9771741165912,
        "Satellite Name": "Starlink Shell 1 216",
        "Satellite Number": 216,
        "Semi-Major Axis(m)": 6931778.249405717,
        "Time(s)": 440
    },
    {
        "Altitude(m)": 562137.4733931439,
        "Argument of Periapsis(deg)": 0.01568603157800566,
        "Eccentricity": 0.0,
        "Inclination(deg)": 53.0,
        "Latitude(deg)": -29.097049477236087,
        "Longitude(deg)": -81.5229105651839,
        "Mean Anomaly(deg)": -37.247095839947804,
        "RAAN(deg)": 44.97665534651372,
        "Satellite Name": "Starlink Shell 1 216",
        "Satellite Number": 216,
        "Semi-Major Axis(m)": 6931778.249405717,
        "Time(s)": 450
    },
    {
        "Altitude(m)": 561962.8635925631,
        "Argument of Periapsis(deg)": 0.0160346100575169,
        "Eccentricity": 0.0,
        "Inclination(deg)": 53.0,
        "Latitude(deg)": -28.639977412128687,
        "Longitude(deg)": -81.07471507422396,
        "Mean Anomaly(deg)": -36.62026463639109,
        "RAAN(deg)": 44.976136576436254,
        "Satellite Name": "Starlink Shell 1 216",
        "Satellite Number": 216,
        "Semi-Major Axis(m)": 6931778.249405717,
        "Time(s)": 460
    },
    {
        "Altitude(m)": 561788.6128794038,
        "Argument of Periapsis(deg)": 0.016383188537028134,
        "Eccentricity": 0.0,
        "Inclination(deg)": 53.0,
        "Latitude(deg)": -28.18110786722546,
        "Longitude(deg)": -80.6307340306221,
        "Mean Anomaly(deg)": -35.99343343283434,
        "RAAN(deg)": 44.975617806358784,
        "Satellite Name": "Starlink Shell 1 216",
        "Satellite Number": 216,
        "Semi-Major Axis(m)": 6931778.249405717,
        "Time(s)": 470
    },
    {
        "Altitude(m)": 561614.785904462,
        "Argument of Periapsis(deg)": 0.01673176701653937,
        "Eccentricity": 0.0,
        "Inclination(deg)": 53.0,
        "Latitude(deg)": -27.720488540716097,
        "Longitude(deg)": -80.19086780494676,
        "Mean Anomaly(deg)": -35.366602229277674,
        "RAAN(deg)": 44.97509903628131,
        "Satellite Name": "Starlink Shell 1 216",
        "Satellite Number": 216,
        "Semi-Major Axis(m)": 6931778.249405717,
        "Time(s)": 480
    },
    {
        "Altitude(m)": 561441.4469826025,
        "Argument of Periapsis(deg)": 0.017080345496050607,
        "Eccentricity": 0.0,
        "Inclination(deg)": 53.0,
        "Latitude(deg)": -27.258166102904966,
        "Longitude(deg)": -79.75501806789586,
        "Mean Anomaly(deg)": -34.73977102572097,
        "RAAN(deg)": 44.97458026620384,
        "Satellite Name": "Starlink Shell 1 216",
        "Satellite Number": 216,
        "Semi-Major Axis(m)": 6931778.249405717,
        "Time(s)": 490
    },
    {
        "Altitude(m)": 561268.6600638697,
        "Argument of Periapsis(deg)": 0.017428923975561842,
        "Eccentricity": 0.0,
        "Inclination(deg)": 53.0,
        "Latitude(deg)": -26.794186225645387,
        "Longitude(deg)": -79.32308728543234,
        "Mean Anomaly(deg)": -34.1129398221642,
        "RAAN(deg)": 44.97406149612635,
        "Satellite Name": "Starlink Shell 1 216",
        "Satellite Number": 216,
        "Semi-Major Axis(m)": 6931778.249405717,
        "Time(s)": 500
    },
    {
        "Altitude(m)": 561096.4887048398,
        "Argument of Periapsis(deg)": 0.01777750245507308,
        "Eccentricity": 0.0,
        "Inclination(deg)": 53.0,
        "Latitude(deg)": -26.328593611306676,
        "Longitude(deg)": -78.89497972409323,
        "Mean Anomaly(deg)": -33.486108618607496,
        "RAAN(deg)": 44.97354272604888,
        "Satellite Name": "Starlink Shell 1 216",
        "Satellite Number": 216,
        "Semi-Major Axis(m)": 6931778.249405717,
        "Time(s)": 510
    },
    {
        "Altitude(m)": 560924.9960400892,
        "Argument of Periapsis(deg)": 0.018126080934584315,
        "Eccentricity": 0.0,
        "Inclination(deg)": 53.0,
        "Latitude(deg)": -25.86143202125853,
        "Longitude(deg)": -78.47060094094525,
        "Mean Anomaly(deg)": -32.859277415050784,
        "RAAN(deg)": 44.973023955971414,
        "Satellite Name": "Starlink Shell 1 216",
        "Satellite Number": 216,
        "Semi-Major Axis(m)": 6931778.249405717,
        "Time(s)": 520
    },
    {
        "Altitude(m)": 560754.244753885,
        "Argument of Periapsis(deg)": 0.018474659414095554,
        "Eccentricity": 0.0,
        "Inclination(deg)": 53.0,
        "Latitude(deg)": -25.392744303861345,
        "Longitude(deg)": -78.04985727126996,
        "Mean Anomaly(deg)": -32.23244621149412,
        "RAAN(deg)": 44.97250518589394,
        "Satellite Name": "Starlink Shell 1 216",
        "Satellite Number": 216,
        "Semi-Major Axis(m)": 6931778.249405717,
        "Time(s)": 530
    },
    {
        "Altitude(m)": 560584.2970520688,
        "Argument of Periapsis(deg)": 0.018823237893606792,
        "Eccentricity": 0.0,
        "Inclination(deg)": 53.0,
        "Latitude(deg)": -24.922572421952463,
        "Longitude(deg)": -77.63265682704656,
        "Mean Anomaly(deg)": -31.605615007937367,
        "RAAN(deg)": 44.97198641581647,
        "Satellite Name": "Starlink Shell 1 216",
        "Satellite Number": 216,
        "Semi-Major Axis(m)": 6931778.249405717,
        "Time(s)": 540
    },
    {
        "Altitude(m)": 560415.2146341604,
        "Argument of Periapsis(deg)": 0.019171816373118027,
        "Eccentricity": 0.0,
        "Inclination(deg)": 53.0,
        "Latitude(deg)": -24.450957479822126,
        "Longitude(deg)": -77.21890898066593,
        "Mean Anomaly(deg)": -30.97878380438066,
        "RAAN(deg)": 44.971467645739,
        "Satellite Name": "Starlink Shell 1 216",
        "Satellite Number": 216,
        "Semi-Major Axis(m)": 6931778.249405717,
        "Time(s)": 550
    },
    {
        "Altitude(m)": 560247.0586657157,
        "Argument of Periapsis(deg)": 0.019520394852629266,
        "Eccentricity": 0.0,
        "Inclination(deg)": 53.0,
        "Latitude(deg)": -23.977939749672878,
        "Longitude(deg)": -76.8085238469181,
        "Mean Anomaly(deg)": -30.351952600823946,
        "RAAN(deg)": 44.97094887566152,
        "Satellite Name": "Starlink Shell 1 216",
        "Satellite Number": 216,
        "Semi-Major Axis(m)": 6931778.249405717,
        "Time(s)": 560
    }
]